["0 TES\n PAYLOAD\n1 26957U 01049A   21283.91593586  .00001189  00000-0  71670-4 0  9999\n2 26957  97.7893  57.9847 0038652  27.7105 332.6171 15.12228410 96543","0 PROBA 1\n PAYLOAD\n1 26958U 01049B   21283.81357816  .00000075  00000-0  11745-4 0  9993\n2 26958  97.7825 239.4999 0073722  96.7688 264.1939 14.95777270 87154","0 BIRD 2\n PAYLOAD\n1 26959U 01049C   21283.91878732  .00004968  00000-0  12779-3 0  9992\n2 26959  97.7837 354.7366 0007751 173.9058 186.2282 15.39750979414745","0 PSLV R/B\n ROCKET BODY\n1 26960U 01049D   21283.91144334  .00001551  00000-0  99430-4 0  9993\n2 26960  97.8261 292.0016 0052903 205.7252 154.1344 15.08988699 91678","0 NIMBUS 2 DEB\n DEBRIS\n1 26962U 66040M   21283.77550086  .00000693  00000-0  11864-2 0  9995\n2 26962 100.3478 105.2809 0052238 352.6249  17.8681 13.48357889996614","0 COSMOS 917 DEB\n DEBRIS\n1 26964U 77047E   21282.13265950 -.00000579  00000-0  00000-0 0  9990\n2 26964  64.3489 143.7402 6867603  38.1146 354.7578  2.02641607542685","0 DELTA 2 DEB\n DEBRIS\n1 26967U 93017E   21282.53608039  .00016296  00000-0  35366-3 0  9999\n2 26967  34.9730  14.9717 4168272 340.9598   7.2211  7.21282943500102","0 SL-16 DEB\n DEBRIS\n1 26968U 93016AJ  21283.69153640  .00000654  00000-0  26013-3 0  9990\n2 26968  71.0013  27.8497 0008050  20.5449  92.6542 14.32345184483568","0 COSMOS 1024 DEB\n DEBRIS\n1 26975U 78066F   21283.11990561  .00000540  00000-0  00000-0 0  9993\n2 26975  64.7748 237.2608 6718347 356.2180   0.3898  2.05715198182441","0 SL-16 DEB\n DEBRIS\n1 26980U 92093JK  21283.89868897  .00004498  00000-0  11656-2 0  9993\n2 26980  71.1110 216.3269 0092797 343.0068  73.8992 14.47766513486117","0 COSMOS 1823 DEB\n DEBRIS\n1 26982U 87020DU  21283.81382639  .00000058  00000-0  54759-3 0  9996\n2 26982  73.6015 165.2869 0027960 167.3150 266.0461 12.42323834980593","0 DIRECTV 4S\n PAYLOAD\n1 26985U 01052A   21283.66331594  .00000078  00000-0  00000-0 0  9996\n2 26985   1.8774  90.9719 0003940  20.4120  24.7140  0.99260497 34099","0 COSMOS 2382 (GLONASS)\n PAYLOAD\n1 26987U 01053A   21282.37063228  .00000056  00000-0  00000-0 0  9998\n2 26987  63.1580 118.6598 0005967 195.2629 345.2692  2.13105187154476","0 COSMOS 2381 (GLONASS)\n PAYLOAD\n1 26988U 01053B   21282.26383847  .00000057  00000-0  00000-0 0  9990\n2 26988  63.1614 118.6852 0042380 219.3697 331.7887  2.13104112154542","0 COSMOS 2380 (GLONASS)\n PAYLOAD\n1 26989U 01053C   21283.41142448  .00000050  00000-0  00000-0 0  9992\n2 26989  63.1549 118.6074 0004746  47.1509 136.2703  2.13103108154559","0 SL-12 R/B(2)\n ROCKET BODY\n1 26992U 01053F   21283.77063142  .00000048  00000-0  00000-0 0  9995\n2 26992  63.1756 117.2861 0014671 268.5417 166.2294  2.13596025154964","0 JASON\n PAYLOAD\n1 26997U 01055A   21283.72772778 -.00000088  00000-0 -10951-3 0  9994\n2 26997  66.0404  46.6821 0007056 276.6259 184.5092 12.84000985929025","0 TIMED\n PAYLOAD\n1 26998U 01055B   21283.82303017  .00000321  00000-0  38697-4 0  9998\n2 26998  74.0730  56.8084 0001652 317.2538  42.8514 14.88359008 75867","0 DELTA 2 DEB (DPAF)\n DEBRIS\n1 27000U 01055D   21283.91164730 -.00000012  00000-0  20300-3 0  9999\n2 27000  66.0438 349.0029 0002654 283.9294 249.8143 12.84743348930736","0 METEOR 3M\n PAYLOAD\n1 27001U 01056A   21283.89420405 -.00000017  00000-0  32497-4 0  9998\n2 27001  99.6441  65.4847 0012895 254.0259 218.5400 13.68853668990902","0 KOMPASS\n PAYLOAD\n1 27002U 01056B   21283.93178172 -.00000005  00000-0  45087-4 0  9991\n2 27002  99.5754  59.5392 0019126 209.0916 260.9891 13.70345732991987","0 BADR B\n PAYLOAD\n1 27003U 01056C   21283.86382501 -.00000021  00000-0  27530-4 0  9998\n2 27003  99.5822  59.3647 0019877 209.4644 150.5383 13.70260810991691","0 MAROC TUBSAT\n PAYLOAD\n1 27004U 01056D   21283.88459550 -.00000028  00000-0  18977-4 0  9992\n2 27004  99.5893  59.7702 0019399 213.7512 263.8980 13.70149028991965","0 REFLECTOR\n PAYLOAD\n1 27005U 01056E   21283.93177613 -.00000005  00000-0  44588-4 0  9998\n2 27005  99.5432  59.3472 0018563 198.0746 161.9757 13.70825825992171","0 SL-16 R/B\n ROCKET BODY\n1 27006U 01056F   21283.88414892 -.00000028  00000-0  18849-4 0  9992\n2 27006  99.5416  56.0256 0014756 174.1606 296.0109 13.70969147992456","0 SL-16 DEB\n DEBRIS\n1 27007U 01056G   21283.87105706  .00000443  00000-0  50861-3 0  9992\n2 27007  99.3286  70.1181 0013856 114.1632 246.0967 13.75116098993291","0 ARIANE 3 DEB\n DEBRIS\n1 27025U 86026J   21281.44332577  .00000228  00000-0  78554-3 0  9991\n2 27025   6.9296  29.4814 7078268 305.2317   7.7776  2.43964320181082","0 ARIANE 3 DEB\n DEBRIS\n1 27026U 88081J   21283.70055809 -.00000091  00000-0  38199-3 0  9996\n2 27026   7.4678 141.8210 7133906  18.6522 161.1270  2.31801658226418","0 ARIANE 3 DEB\n DEBRIS\n1 27027U 88081K   21280.22727501 -.00000064  00000-0 -32780-2 0  9996\n2 27027   7.8426 182.2266 7145700 287.2462  71.8765  2.21176009181450","0 ARIANE 2 DEB\n DEBRIS\n1 27029U 89006J   21283.70640563 -.00000221  00000-0 -11923-2 0  9995\n2 27029   8.6587  92.6865 7130192  65.3549 350.8439  2.27779870 68798","0 ARIANE 2 DEB\n DEBRIS\n1 27030U 89006K   21283.59195512  .00000106  00000-0  12336-2 0  9992\n2 27030   8.2329 294.5943 7131073  26.7427 356.8996  2.33806139169641","0 ARIANE 2 DEB\n DEBRIS\n1 27031U 89006L   21283.58321234  .00001875  00000-0  22471-2 0  9999\n2 27031   7.6280 142.0365 6665939 325.7759   5.4090  3.01391004193171","0 ARIANE 2 DEB\n DEBRIS\n1 27032U 89006M   21283.64569785  .00000257  00000-0  26756-2 0  9995\n2 27032   8.7539  19.0558 7167505 213.2096 133.6201  2.28701923169310","0 ARIANE 2 DEB\n DEBRIS\n1 27033U 89006N   21283.66193424  .00000636  00000-0  48042-2 0  9994\n2 27033   8.7227 338.8137 7140285 296.6362  98.8355  2.31927892170073","0 ARIANE 2 DEB\n DEBRIS\n1 27034U 89006P   21283.08126543 -.00000045  00000-0 -25328-3 0  9998\n2 27034   7.4524 198.5882 7114335 228.6201 340.2133  2.24817135166097","0 ARIANE 2 DEB\n DEBRIS\n1 27035U 89006Q   21280.67698170  .00000584  00000-0  53483-2 0  9999\n2 27035   8.7690 355.6757 7123793 261.6373  19.0554  2.33105896  1155","0 ARIANE 2 DEB\n DEBRIS\n1 27039U 89006U   21283.75940547 -.00000194  00000-0 -12303-3 0  9999\n2 27039   8.2411  81.8173 7154013  92.1862 202.5446  2.26119730167431","0 ARIANE 2 DEB\n DEBRIS\n1 27040U 89006V   21283.15259403 -.00000018  00000-0  47631-2 0  9994\n2 27040   8.1096 315.7863 7051272   0.7545   4.5064  2.23745180165145","0 ARIANE 2 DEB\n DEBRIS\n1 27041U 89006W   21280.12175389  .00000019  00000-0  44390-3 0  9999\n2 27041   8.8891 350.8070 7192459 269.3445  15.5291  2.27671677168310","0 ARIANE 2 DEB\n DEBRIS\n1 27042U 89006X   21283.09718292 -.00000119  00000-0 -32976-2 0  9994\n2 27042   7.5302 167.2872 7130124 285.4139 318.9126  2.25106826 62939","0 ARIANE 2 DEB\n DEBRIS\n1 27043U 89006Y   21278.26275140 -.00000084  00000-0 -21073-2 0  9995\n2 27043   7.4989 183.4079 7123948 255.9087 316.0199  2.25009771165865","0 ARIANE 2 DEB\n DEBRIS\n1 27044U 89006Z   21281.27038485  .00000554  00000-0  43782-2 0  9991\n2 27044   8.4587 335.4713 7130527 306.6139   7.1600  2.32872362168307","0 ARIANE 2 DEB\n DEBRIS\n1 27046U 89006AB  21283.42647481 -.00000174  00000-0  26208-3 0  9998\n2 27046   7.6329 246.6862 7076360 135.4913   9.0207  2.24211875 73355","0 ARIANE 44LP DEB\n DEBRIS\n1 27047U 89062K   21283.06431700  .00002543  00000-0  67639-2 0  9999\n2 27047   9.3492 326.0521 6893996 269.0442  18.0019  2.67714167214440","0 ARIANE 44LP DEB\n DEBRIS\n1 27048U 89062L   21283.18029884  .00017030  00000-0  12240-1 0  9993\n2 27048   8.4982 333.4964 6222446 262.1482  27.6106  3.64622542239973","0 ARIANE 44LP DEB\n DEBRIS\n1 27049U 89062M   21282.37531387  .00003261  00000-0  39356-2 0  9999\n2 27049   8.7708 321.1120 6926742 293.1687  10.6078  2.67805323 88235","0 CRRES DEB (CANISTER)\n DEBRIS\n1 27051U 90065U   21281.82749386  .00000831  00000-0  62497-3 0  9999\n2 27051  17.8945 175.3393 6889183 204.0432  95.9372  2.74676080 85187","0 COSMOS 2384\n PAYLOAD\n1 27055U 01058A   21283.85749376  .00000019  00000-0  51313-4 0  9995\n2 27055  82.5427 244.7343 0010305 141.1608 219.0225 12.59834013909955","0 COSMOS 2385\n PAYLOAD\n1 27056U 01058B   21283.84064369  .00000003  00000-0 -40351-4 0  9991\n2 27056  82.5372 233.5970 0006539 120.8095 239.3644 12.60514328910458","0 COSMOS 2386\n PAYLOAD\n1 27057U 01058C   21283.88416373 -.00000008  00000-0 -10534-3 0  9997\n2 27057  82.5439 229.0204 0001533  39.1453 320.9750 12.61560607911191","0 GONETS D1 7\n PAYLOAD\n1 27058U 01058D   21283.85759730 -.00000003  00000-0 -76612-4 0  9997\n2 27058  82.5370 219.0536 0002116 290.4323  69.6547 12.62030136911549","0 GONETS D1 8\n PAYLOAD\n1 27059U 01058E   21283.81872244 -.00000019  00000-0 -16924-3 0  9996\n2 27059  82.5415 227.9259 0002073 117.2336 242.8969 12.61497083911148","0 GONETS D1 9\n PAYLOAD\n1 27060U 01058F   21283.82749609 -.00000009  00000-0 -11030-3 0  9999\n2 27060  82.5429 214.3815 0007156 222.5966 137.4576 12.63006594912249","0 SL-14 R/B\n ROCKET BODY\n1 27061U 01058G   21283.79154740 -.00000007  00000-0 -10735-3 0  9991\n2 27061  82.5396 293.8264 0042768 328.0165 205.4434 12.53935236905642","0 PSLV DEB\n DEBRIS\n1 27089U 01049AH  21283.80703568  .00000559  00000-0  61959-4 0  9996\n2 27089  97.9698 232.2673 0060104 327.8139  87.5258 14.90263976 73984","0 PSLV DEB\n DEBRIS\n1 27097U 01049AR  21283.84988788  .00181682  00000-0  10541-2 0  9994\n2 27097  97.5643 128.8198 0010255 257.6820 102.3298 15.77953823 86369","0 PSLV DEB\n DEBRIS\n1 27119U 01049BP  21283.91871966  .00002826  00000-0  16059-3 0  9999\n2 27119  97.7706 322.5655 0030617 247.9513 111.8465 15.13388386 81364","0 PSLV DEB\n DEBRIS\n1 27121U 01049BR  21283.85545136  .00012437  00000-0  51096-3 0  9991\n2 27121  97.1801 300.4567 0035080 175.2886 184.8689 15.23748059408650","0 PSLV DEB\n DEBRIS\n1 27123U 01049BT  21283.83625716  .00000283  00000-0  60689-4 0  9999\n2 27123  97.4096  28.0752 0044758 162.7042 197.5700 14.64367465 55461"]